{
  "type": "FeatureCollection",
  "features": [
    {
      "type": "Feature",
      "properties": {
        "norad_id": 66844,
        "name": "STARLINK-36073",
        "group": "last-30-days",
        "lat": 31.106329971788362,
        "lon": -148.14042778372956,
        "alt_km": 327.1481915802933,
        "timestamp": "2025-12-12T14:39:16.773025+00:00",
        "meta_object_name": "STARLINK-36073",
        "meta_object_id": "2025-280Z",
        "meta_epoch": "2025-12-12T06:00:00.999648",
        "meta_mean_motion": 15.82248367,
        "meta_eccentricity": 0.00036327,
        "meta_inclination": 69.9913,
        "meta_ra_of_asc_node": 200.1887,
        "meta_arg_of_pericenter": 277.7697,
        "meta_mean_anomaly": 223.2401,
        "meta_ephemeris_type": 0,
        "meta_classification_type": "U",
        "meta_norad_cat_id": 66844,
        "meta_element_set_no": 999,
        "meta_rev_at_epoch": 282,
        "meta_bstar": -0.010318422,
        "meta_mean_motion_dot": -0.01868408,
        "meta_mean_motion_ddot": 0,
        "tle_line1": "1 66844U 25280Z   25346.25001157 -.01868408  00000+0 -10318-1 0  9996",
        "tle_line2": "2 66844  69.9913 200.1887 0003632 277.7697 223.2401 15.82248367  2824"
      },
      "geometry": {
        "type": "Point",
        "coordinates": [
          -148.14042778372956,
          31.106329971788362
        ]
      }
    },
    {
      "type": "Feature",
      "properties": {
        "norad_id": 66845,
        "name": "STARLINK-36068",
        "group": "last-30-days",
        "lat": 37.99719333237048,
        "lon": -144.3116371583802,
        "alt_km": 326.26918989761816,
        "timestamp": "2025-12-12T14:39:16.773034+00:00",
        "meta_object_name": "STARLINK-36068",
        "meta_object_id": "2025-280AA",
        "meta_epoch": "2025-12-12T06:00:00.999648",
        "meta_mean_motion": 15.82330461,
        "meta_eccentricity": 0.00035895,
        "meta_inclination": 69.991,
        "meta_ra_of_asc_node": 200.1797,
        "meta_arg_of_pericenter": 272.6049,
        "meta_mean_anomaly": 235.8796,
        "meta_ephemeris_type": 0,
        "meta_classification_type": "U",
        "meta_norad_cat_id": 66845,
        "meta_element_set_no": 999,
        "meta_rev_at_epoch": 282,
        "meta_bstar": -0.010352329,
        "meta_mean_motion_dot": -0.01880078,
        "meta_mean_motion_ddot": 0,
        "tle_line1": "1 66845U 25280AA  25346.25001157 -.01880078  00000+0 -10352-1 0  9992",
        "tle_line2": "2 66845  69.9910 200.1797 0003589 272.6049 235.8796 15.82330461  2821"
      },
      "geometry": {
        "type": "Point",
        "coordinates": [
          -144.3116371583802,
          37.99719333237048
        ]
      }
    },
    {
      "type": "Feature",
      "properties": {
        "norad_id": 66846,
        "name": "STARLINK-36055",
        "group": "last-30-days",
        "lat": 34.71651674053303,
        "lon": -146.2228301197487,
        "alt_km": 326.82302881412215,
        "timestamp": "2025-12-12T14:39:16.773044+00:00",
        "meta_object_name": "STARLINK-36055",
        "meta_object_id": "2025-280AB",
        "meta_epoch": "2025-12-12T06:00:00.999648",
        "meta_mean_motion": 15.82274196,
        "meta_eccentricity": 0.00037133,
        "meta_inclination": 69.9912,
        "meta_ra_of_asc_node": 200.1837,
        "meta_arg_of_pericenter": 274.0895,
        "meta_mean_anomaly": 230.8426,
        "meta_ephemeris_type": 0,
        "meta_classification_type": "U",
        "meta_norad_cat_id": 66846,
        "meta_element_set_no": 999,
        "meta_rev_at_epoch": 282,
        "meta_bstar": -0.010356191,
        "meta_mean_motion_dot": -0.01876488,
        "meta_mean_motion_ddot": 0,
        "tle_line1": "1 66846U 25280AB  25346.25001157 -.01876488  00000+0 -10356-1 0  9997",
        "tle_line2": "2 66846  69.9912 200.1837 0003713 274.0895 230.8426 15.82274196  2820"
      },
      "geometry": {
        "type": "Point",
        "coordinates": [
          -146.2228301197487,
          34.71651674053303
        ]
      }
    },
    {
      "type": "Feature",
      "properties": {
        "norad_id": 66847,
        "name": "STARLINK-36061",
        "group": "last-30-days",
        "lat": 36.32935505780082,
        "lon": -145.30529147264622,
        "alt_km": 326.54406851240765,
        "timestamp": "2025-12-12T14:39:16.773052+00:00",
        "meta_object_name": "STARLINK-36061",
        "meta_object_id": "2025-280AC",
        "meta_epoch": "2025-12-12T06:00:00.999648",
        "meta_mean_motion": 15.82305246,
        "meta_eccentricity": 0.00036704,
        "meta_inclination": 69.9911,
        "meta_ra_of_asc_node": 200.1821,
        "meta_arg_of_pericenter": 273.4865,
        "meta_mean_anomaly": 233.1828,
        "meta_ephemeris_type": 0,
        "meta_classification_type": "U",
        "meta_norad_cat_id": 66847,
        "meta_element_set_no": 999,
        "meta_rev_at_epoch": 277,
        "meta_bstar": -0.010348319,
        "meta_mean_motion_dot": -0.01877589,
        "meta_mean_motion_ddot": 0,
        "tle_line1": "1 66847U 25280AC  25346.25001157 -.01877589  00000+0 -10348-1 0  9992",
        "tle_line2": "2 66847  69.9911 200.1821 0003670 273.4865 233.1828 15.82305246  2772"
      },
      "geometry": {
        "type": "Point",
        "coordinates": [
          -145.30529147264622,
          36.32935505780082
        ]
      }
    },
    {
      "type": "Feature",
      "properties": {
        "norad_id": 66848,
        "name": "STARLINK-36091",
        "group": "last-30-days",
        "lat": 32.241066562790174,
        "lon": -99.40144274495717,
        "alt_km": 295.23843677182504,
        "timestamp": "2025-12-12T14:39:16.773061+00:00",
        "meta_object_name": "STARLINK-36091",
        "meta_object_id": "2025-281A",
        "meta_epoch": "2025-12-12T06:00:00.999648",
        "meta_mean_motion": 15.91865414,
        "meta_eccentricity": 0.00016757,
        "meta_inclination": 43.0012,
        "meta_ra_of_asc_node": 125.4386,
        "meta_arg_of_pericenter": 268.5398,
        "meta_mean_anomaly": 311.4013,
        "meta_ephemeris_type": 0,
        "meta_classification_type": "U",
        "meta_norad_cat_id": 66848,
        "meta_element_set_no": 999,
        "meta_rev_at_epoch": 132,
        "meta_bstar": -0.0033420994,
        "meta_mean_motion_dot": -0.01141399,
        "meta_mean_motion_ddot": 0.00038428166,
        "tle_line1": "1 66848U 25281A   25346.25001157 -.01141399  38428-3 -33421-2 0  9994",
        "tle_line2": "2 66848  43.0012 125.4386 0001675 268.5398 311.4013 15.91865414  1326"
      },
      "geometry": {
        "type": "Point",
        "coordinates": [
          -99.40144274495717,
          32.241066562790174
        ]
      }
    },
    {
      "type": "Feature",
      "properties": {
        "norad_id": 66849,
        "name": "STARLINK-36102",
        "group": "last-30-days",
        "lat": 31.11629066252877,
        "lon": -97.18210763597293,
        "alt_km": 295.2555126766574,
        "timestamp": "2025-12-12T14:39:16.773070+00:00",
        "meta_object_name": "STARLINK-36102",
        "meta_object_id": "2025-281B",
        "meta_epoch": "2025-12-12T06:00:00.999648",
        "meta_mean_motion": 15.91906176,
        "meta_eccentricity": 0.00015607,
        "meta_inclination": 43.0014,
        "meta_ra_of_asc_node": 125.4326,
        "meta_arg_of_pericenter": 270.3518,
        "meta_mean_anomaly": 311.7384,
        "meta_ephemeris_type": 0,
        "meta_classification_type": "U",
        "meta_norad_cat_id": 66849,
        "meta_element_set_no": 999,
        "meta_rev_at_epoch": 132,
        "meta_bstar": -0.0033532152,
        "meta_mean_motion_dot": -0.01147544,
        "meta_mean_motion_ddot": 0.00038822471,
        "tle_line1": "1 66849U 25281B   25346.25001157 -.01147544  38822-3 -33532-2 0  9994",
        "tle_line2": "2 66849  43.0014 125.4326 0001560 270.3518 311.7384 15.91906176  1326"
      },
      "geometry": {
        "type": "Point",
        "coordinates": [
          -97.18210763597293,
          31.11629066252877
        ]
      }
    },
    {
      "type": "Feature",
      "properties": {
        "norad_id": 66850,
        "name": "STARLINK-36105",
        "group": "last-30-days",
        "lat": 29.553416163952704,
        "lon": -94.29481552123124,
        "alt_km": 295.2475865455981,
        "timestamp": "2025-12-12T14:39:16.773079+00:00",
        "meta_object_name": "STARLINK-36105",
        "meta_object_id": "2025-281C",
        "meta_epoch": "2025-12-12T06:00:00.999648",
        "meta_mean_motion": 15.91957782,
        "meta_eccentricity": 0.00014912,
        "meta_inclination": 43.0012,
        "meta_ra_of_asc_node": 125.4257,
        "meta_arg_of_pericenter": 266.2485,
        "meta_mean_anomaly": 318.7227,
        "meta_ephemeris_type": 0,
        "meta_classification_type": "U",
        "meta_norad_cat_id": 66850,
        "meta_element_set_no": 999,
        "meta_rev_at_epoch": 132,
        "meta_bstar": -0.003367103,
        "meta_mean_motion_dot": -0.01155307,
        "meta_mean_motion_ddot": 0.00039323538,
        "tle_line1": "1 66850U 25281C   25346.25001157 -.01155307  39324-3 -33671-2 0  9994",
        "tle_line2": "2 66850  43.0012 125.4257 0001491 266.2485 318.7227 15.91957782  1321"
      },
      "geometry": {
        "type": "Point",
        "coordinates": [
          -94.29481552123124,
          29.553416163952704
        ]
      }
    }
  ]
}